OBJECT_NAME,OBJECT_ID,EPOCH,MEAN_MOTION,ECCENTRICITY,INCLINATION,RA_OF_ASC_NODE,ARG_OF_PERICENTER,MEAN_ANOMALY,EPHEMERIS_TYPE,CLASSIFICATION_TYPE,NORAD_CAT_ID,ELEMENT_SET_NO,REV_AT_EPOCH,BSTAR,MEAN_MOTION_DOT,MEAN_MOTION_DDOT
STARLINK-37869,2026-131F,2026-06-17T18:00:02.999808,15.96910777,.00011494,97.2820,188.9802,76.2430,50.1342,0,U,69483,999,210,-.2603614E-2,-.1107172E-1,.38260644E-3
STARLINK-37873,2026-131G,2026-06-17T18:00:02.999808,15.97024990,.00011606,97.2820,188.9809,76.2701,51.9896,0,U,69484,999,210,-.25920221E-2,-.1109103E-1,.3843137E-3
STARLINK-37892,2026-131H,2026-06-17T18:00:02.999808,15.97108252,.00011498,97.2819,188.9816,78.7411,50.8476,0,U,69485,999,210,-.25572949E-2,-.1099303E-1,.37838735E-3
STARLINK-37893,2026-131J,2026-06-17T18:00:02.999808,15.97225915,.00011655,97.2818,188.9823,77.5835,53.9573,0,U,69486,999,218,-.25487385E-2,-.1102657E-1,.3810102E-3
STARLINK-37842,2026-131K,2026-06-17T20:00:01.999872,15.97137733,.0001069,97.2817,189.0737,79.0004,173.2061,0,U,69487,999,211,-.24442105E-2,-.1052755E-1,.34935296E-3
STARLINK-37449,2026-131L,2026-06-17T20:00:01.999872,15.97254920,.00010931,97.2818,189.0744,79.7938,174.4151,0,U,69488,999,220,-.24338781E-2,-.1055018E-1,.35118975E-3
STARLINK-37879,2026-131N,2026-06-17T20:00:01.999872,15.97486806,.00010973,97.2816,189.0761,79.1630,178.9501,0,U,69490,999,211,-.24145498E-2,-.1059963E-1,.35513589E-3
STARLINK-37856,2026-131P,2026-06-17T20:00:01.999872,15.97605672,.00011136,97.2816,189.0765,78.4450,181.6887,0,U,69491,999,217,-.24065046E-2,-.1063313E-1,.35767922E-3
STARLINK-37568,2026-131Q,2026-06-17T20:00:01.999872,15.97711152,.00010589,97.2814,189.0775,80.0615,181.8648,0,U,69492,999,220,-.2390303E-2,-.1062291E-1,.35745091E-3
STARLINK-37855,2026-131R,2026-06-17T20:00:01.999872,15.97844981,.0001051,97.2814,189.0786,80.1605,184.0670,0,U,69493,999,217,-.23873993E-2,-.1068781E-1,.36203359E-3
STARLINK-37854,2026-131S,2026-06-17T20:00:01.999872,15.97972979,.00010076,97.2812,189.0794,80.2836,186.2001,0,U,69494,999,217,-.23727484E-2,-.1069723E-1,.36313083E-3
STARLINK-37789,2026-131T,2026-06-17T20:00:01.999872,15.98089273,.00010974,97.2811,189.0801,78.8272,189.6381,0,U,69495,999,219,-.23625931E-2,-.1071991E-1,.36502099E-3
STARLINK-37839,2026-131U,2026-06-17T20:00:01.999872,15.98292119,.00010927,97.2810,189.0817,77.5969,194.4436,0,U,69496,999,217,-.23415098E-2,-.1074381E-1,.36734345E-3
STARLINK-37798,2026-131V,2026-06-17T20:00:01.999872,15.98178905,.00010853,97.2812,189.0808,79.9824,190.0040,0,U,69497,999,217,-.23538414E-2,-.1073307E-1,.36620966E-3
STARLINK-37853,2026-131W,2026-06-17T20:00:01.999872,15.98659825,.00010712,97.2810,189.0845,78.1581,200.0017,0,U,69498,999,217,-.22792962E-2,-.1067437E-1,.36442655E-3
STARLINK-37849,2026-131X,2026-06-17T20:00:01.999872,15.98575084,.00011021,97.2809,189.0837,79.5283,197.2866,0,U,69499,999,219,-.2289581E-2,-.1067223E-1,.36395159E-3
STARLINK-37843,2026-131Z,2026-06-17T20:00:01.999872,15.98482208,.00009862,97.2810,189.0833,79.4775,195.8087,0,U,69501,999,217,-.23079265E-2,-.1070204E-1,.36546324E-3
2026-132A,2026-132A,2026-06-17T19:44:35.299392,14.99045314,.00125391,97.6907,232.4901,268.3630,91.6156,0,U,69502,999,87,.43543836E-4,.469E-5,0
2026-132B,2026-132B,2026-06-17T19:44:05.058528,14.99135257,.00124382,97.6938,232.4929,270.6531,89.3267,0,U,69503,999,87,.27530965E-4,.276E-5,0
BRO-22,2026-132C,2026-06-17T18:04:33.634848,14.99758089,.00139389,97.6877,232.4236,282.6210,77.3454,0,U,69504,999,86,.40096399E-4,.436E-5,0
2026-132D,2026-132D,2026-06-17T17:55:37.301664,15.02139837,.00133686,97.6863,232.4219,289.5250,70.4531,0,U,69505,999,86,.10621323E-3,.1338E-4,0
2026-132E,2026-132E,2026-06-17T17:58:29.166816,15.00880861,.00126224,97.6911,232.4341,305.4622,54.5423,0,U,69506,999,85,.1410804E-3,.1737E-4,0
2026-132F,2026-132F,2026-06-17T14:44:22.547040,15.01610542,.00105834,97.6873,232.2826,301.3787,58.6401,0,U,69507,999,83,.6232203E-5,.2E-6,0
STARLINK-37536,2026-133A,2026-06-17T22:00:01.999584,16.06544376,.00006653,53.1593,319.1663,41.5722,273.5692,0,U,69508,999,208,-.21557694E-2,-.1665366E-1,.9092091E-3
STARLINK-37341,2026-133B,2026-06-17T22:00:01.999584,16.06788135,.00006581,53.1593,319.1611,46.0165,271.6775,0,U,69509,999,208,-.21105237E-2,-.1655604E-1,.90202271E-3
STARLINK-36536,2026-133C,2026-06-17T22:00:01.999584,16.07054647,.00006182,53.1594,319.1558,45.6173,274.7094,0,U,69510,999,202,-.20253291E-2,-.1616117E-1,.86524956E-3
STARLINK-37420,2026-133D,2026-06-17T22:00:01.999584,16.07718427,.0000638,53.1592,319.1444,45.9129,279.7229,0,U,69511,999,197,-.19330593E-2,-.1608704E-1,.86502417E-3
STARLINK-37511,2026-133E,2026-06-17T22:00:01.999584,16.07389734,.00006367,53.1595,319.1504,51.3552,271.6467,0,U,69512,999,197,-.19674782E-2,-.1603662E-1,.85646005E-3
STARLINK-37552,2026-133F,2026-06-17T22:00:01.999584,16.07988561,.00006964,53.1593,319.1396,41.8565,286.3663,0,U,69513,999,197,-.188193E-2,-.1593532E-1,.85281003E-3
